0 COSMOS 2294 (GLONASS)
1 23398U 94076C   13280.39731896  .00000028  00000-0  00000+0 0  6065
2 23398 064.0460 229.0292 0003048 329.7393 133.0231 02.13102073146951
0 COSMOS 2294 (GLONASS)
1 23398U 94076C   13283.22058126  .00000025  00000-0  00000+0 0  6076
2 23398 064.0452 228.9310 0002999 333.4064 135.2700 02.13102141147011
0 COSMOS 2294 (GLONASS)
1 23398U 94076C   13286.71858902 -.00000021  00000-0  00000+0 0  6081
2 23398 064.0444 228.8095 0003009 333.8185 298.4158 02.13102258147087
0 COSMOS 2294 (GLONASS)
1 23398U 94076C   13289.31628297 -.00000040  00000-0  00000+0 0  6094
2 23398 064.0439 228.7193 0003020 335.8437 129.2582 02.13102300147141
0 COSMOS 2294 (GLONASS)
1 23398U 94076C   13291.76434855 -.00000026  00000-0  00000+0 0  6107
2 23398 064.0434 228.6343 0003037 337.5215 205.6596 02.13102287147196
0 COSMOS 2294 (GLONASS)
1 23398U 94076C   13294.15505914 -.00000005  00000-0  00000+0 0  6116
2 23398 064.0429 228.5515 0003060 339.3372 237.9226 02.13102239147241
